AMOS-17                 
1 44479U 19050A   26094.89264660  .00000110  00000+0  00000+0 0  9995
2 44479   0.0207 279.0059 0001522 107.3493 145.1803  1.00272725 24451
AEHF-5 (USA 292)        
1 44481U 19051A   26094.90763057 -.00000258  00000+0  00000+0 0  9999
2 44481   1.5274 330.8301 0070524   3.3479 278.8715  1.00271392 24520
EUTELSAT 5 WEST B       
1 44624U 19067A   26094.89905921 -.00000041  00000+0  00000+0 0  9991
2 44624   0.0662  11.3817 0003454  13.0005 127.4778  1.00272827 23709
TJS-4                   
1 44637U 19070A   26094.90581056 -.00000170  00000+0  00000+0 0  9993
2 44637   0.0326  67.7382 0002446 343.5031 191.5854  1.00274215 23803
BEIDOU-3 IGSO-3         
1 44709U 19073A   26094.91715300 -.00000178  00000+0  00000+0 0  9996
2 44709  54.9277 281.6865 0041418 188.5176 171.3520  1.00259378 23728
TIBA-1                  
1 44800U 19080A   26094.86294936  .00000156  00000+0  00000+0 0  9992
2 44800   0.0647  15.5474 0001976 359.7258 164.0436  1.00270885 23328
INMARSAT GX5            
1 44801U 19080B   26094.95020394  .00000076  00000+0  00000+0 0  9999
2 44801   0.0612  38.3437 0002014 351.9797 156.0054  1.00273124  6056
JCSAT-18 (KACIFIC 1)    
1 44868U 19091A   26094.79280682 -.00000200  00000+0  00000+0 0  9994
2 44868   0.0399 351.5227 0000313  82.7929 194.1979  1.00271165 23279
ELEKTRO-L 3             
1 44903U 19095A   26094.97476230 -.00000095  00000+0  00000+0 0  9996
2 44903   0.0753  61.4353 0001391 306.4691 252.2285  1.00272372 22972
SHIJIAN-20 (SJ-20)      
1 44910U 19097A   26094.78495895  .00000110  00000+0  00000+0 0  9990
2 44910   4.7304  75.9451 0002999  16.0876  78.4415  1.00087812 22961
TJS-5                   
1 44978U 20002A   26094.83930993 -.00000342  00000+0  00000+0 0  9999
2 44978   0.1984 269.7875 0005511 124.4959 208.5315  1.00270451 22969
GSAT-30                 
1 45026U 20005A   26094.90449474 -.00000164  00000+0  00000+0 0  9996
2 45026   0.0719  82.5833 0002114 347.9661 171.2692  1.00272604 22777
EUTELSAT KONNECT        
1 45027U 20005B   26094.89073993  .00000050  00000+0  00000+0 0  9997
2 45027   0.0691  94.3049 0001253 221.3687 205.4067  1.00272747 23600
JCSAT-17                
1 45245U 20013A   26094.73462796 -.00000319  00000+0  00000+0 0  9993
2 45245   5.3944 356.1479 0004439  15.6026 221.7419  1.00272475 22493
GEO-KOMPSAT-2B          
1 45246U 20013B   26094.91473727 -.00000343  00000+0  00000+0 0  9997
2 45246   0.0442 343.0481 0001232 355.7758 311.9588  1.00273334 22545
BEIDOU-3 G2             
1 45344U 20017A   26094.90511722 -.00000139  00000+0  00000+0 0  9990
2 45344   2.7179  46.1482 0002856 336.6568 216.2951  1.00272137 22521
AEHF-6 (USA 298)        
1 45465U 20022B   26094.91655727 -.00000301  00000+0  00000+0 0  9996
2 45465   2.7099 300.2392 0047602  17.0971 343.5407  1.00268421 22279
BEIDOU-3 G3             
1 45807U 20040A   26094.91118391 -.00000352  00000+0  00000+0 0  9993
2 45807   2.2679  67.2275 0004569 327.9741 236.6001  1.00269886 21335
APSTAR-6D               
1 45863U 20045A   26093.48976877 -.00000321  00000+0  00000+0 0  9998
2 45863   0.0470 103.0436 0002660 345.0952  53.9599  1.00266278 21115
KOREASAT 116            
1 45920U 20048A   26094.88340675  .00000000  00000+0  00000+0 0  9994
2 45920   0.0123 200.2155 0001192 205.2544 221.9654  1.00268647 20902
EXPRESS 103             
1 45985U 20053A   26092.04330780 -.00000288  00000+0  00000+0 0  9992
2 45985   0.0224 258.5231 0000849  21.4282  22.5300  1.00272930 20881
EXPRESS 80              
1 45986U 20053B   26094.25138316 -.00000089  00000+0  00000+0 0  9998
2 45986   0.1257 265.9557 0126317 142.0367 313.0659  0.99608059 20905
BSAT-4B                 
1 46112U 20056A   26094.92831714 -.00000349  00000+0  00000+0 0  9998
2 46112   0.0748 110.4336 0002667 336.4903 190.3414  1.00271333 20657
MEV-2                   
1 46113U 20056B   26094.89905921 -.00000010  00000+0  00000+0 0  9992
2 46113   0.0402  43.3490 0001984  33.0768  79.4337  1.00272171 79847
GALAXY 30 (G-30)        
1 46114U 20056C   26094.72190522  .00000000  00000+0  00000+0 0  9996
2 46114   0.0167 204.0502 0002453 196.6343 287.2366  1.00272100 20550
GAOFEN-13 01            
1 46610U 20071A   26094.92499632 -.00000362  00000+0  00000+0 0  9992
2 46610   0.3318  85.0400 0042568 120.9806  78.4091  1.00268251 20187
TIANTONG-1 2            
1 46916U 20082A   26092.84612071 -.00000361  00000+0  00000+0 0  9995
2 46916   0.9014 317.9461 0002767  54.7604 248.0194  1.00270837 19894
LUCAS (JDRS-1)          
1 47202U 20089A   26094.92071993 -.00000235  00000+0  00000+0 0  9994
2 47202   0.0287 266.6166 0002697 104.4804 244.3720  1.00272505 19680
SXM-7                   
1 47240U 20096A   26094.87247431 -.00000204  00000+0  00000+0 0  9996
2 47240   0.0256 120.6162 0004784   2.4611 299.0303  1.00272072  6707
CMS-01                  
1 47256U 20099A   26094.90449561 -.00000164  00000+0  00000+0 0  9993
2 47256   0.0998  91.2101 0005319 203.5382 307.0694  1.00272651 19460
TURKSAT 5A              
1 47306U 21001A   26094.86294936  .00000155  00000+0  00000+0 0  9991
2 47306   0.0195 152.2219 0000070 305.3178  77.2062  1.00273682 19231
TIANTONG-1 3            
1 47321U 21003A   26094.90546389 -.00000156  00000+0  00000+0 0  9999
2 47321   1.8208 334.9259 0003281  42.5497 223.2201  1.00273774 19225
TJS-6                   
1 47613U 21010A   26094.85332089  .00000044  00000+0  00000+0 0  9990
2 47613   0.4115  89.1582 0003494 304.6981 284.9916  1.00274083 19079
SBIRS GEO-5 (USA 315)   
1 48618U 21042A   26094.92932221 -.00000271  00000+0  00000+0 0  9996
2 48618   5.1975 328.5673 0001487  54.7636 238.2439  1.00272270 18035
FENGYUN 4B              
1 48808U 21047A   26094.92188603 -.00000328  00000+0  00000+0 0  9992
2 48808   0.0506 299.4509 0006141  81.9542 248.3110  1.00265337 17835
SXM-8                   
1 48838U 21049A   26094.87247431 -.00000205  00000+0  00000+0 0  9990
2 48838   0.0377  43.6011 0004727 357.8925  20.6211  1.00271301 17852
TIANLIAN 1-05           
1 49011U 21063A   26094.89264660  .00000109  00000+0  00000+0 0  9997
2 49011   1.4048  81.2585 0003380 251.7495 198.3061  1.00273693 17344
STAR ONE D2             
1 49055U 21069A   26094.51892419  .00000000  00000+0  00000+0 0  9999
2 49055   0.0235 178.5121 0000855 213.8942 277.1696  1.00268527 17206
EUTELSAT QUANTUM        
1 49056U 21069B   26094.89879053  .00000127  00000+0  00000+0 0  9990
2 49056   0.0058 237.1056 0002275 136.7546 190.6026  1.00270522 17192
ZHONGXING-2E            
1 49062U 21071A   26094.90875723  .00000000  00000+0  00000+0 0  9992
2 49062   0.0080  69.1502 0001695  59.7428 129.5353  1.00272226 17301
TJS-7                   
1 49115U 21077A   26094.94091071 -.00000123  00000+0  00000+0 0  9994
2 49115   0.3202  86.9587 0002243 294.2989  51.2599  1.00272054  8815
CHINASAT 9B             
1 49125U 21080A   26094.62414478 -.00000312  00000+0  00000+0 0  9994
2 49125   0.0166 219.2672 0001986 139.7046 160.0727  1.00270388 16918
SHIJIAN-21 (SJ-21)      
1 49330U 21094A   26094.95638854 -.00000345  00000+0  00000+0 0  9995
2 49330   4.9404  61.5873 0047492 169.9738  73.9928  1.00273072  4623
SES-17                  
1 49332U 21095A   26094.87600654 -.00000271  00000+0  00000+0 0  9994
2 49332   0.0227  75.8640 0001109 305.8644  59.7221  1.00270657 17119
SYRACUSE 4A             
1 49333U 21095B   26094.85183654  .00000136  00000+0  00000+0 0  9998
2 49333   0.0190 239.1801 0001369 130.1918 175.9623  1.00266765 17217
QZS-1R (MICHIBIKI-1R)   
1 49336U 21096A   26094.84303661 -.00000241  00000+0  00000+0 0  9991
2 49336  37.3118  80.6625 0750071 270.3917 281.0550  1.00280925 16270
ZHONGXING-1D            
1 49505U 21114A   26094.91508394 -.00000336  00000+0  00000+0 0  9993
2 49505   0.0389 304.8370 0001685 276.8527  71.1228  1.00270825 16088
STPSAT-6                
1 49817U 21118A   26094.65326492 -.00000044  00000+0  00000+0 0  9997
2 49817   0.1322  84.3111 0002218 252.5255 339.4307  1.00272623 15835
LDPE-1                  
1 49818U 21118B   26094.61331141  .00000054  00000+0  00000+0 0  9991
2 49818   5.5092  63.3922 0001696 161.7728 235.2103  0.98967795 15914
EXPRESS AMU-7           
1 50001U 21123A   26093.34926137 -.00000245  00000+0  00000+0 0  9990
2 50001   0.0145 249.0261 0000125 119.3954  93.9924  1.00272584 15799
EXPRESS AMU-3           
1 50002U 21123B   26094.17911013 -.00000322  00000+0  00000+0 0  9996
2 50002   0.0189 244.2915 0000555  26.5895  89.1045  1.00272396  6298
TIANLIAN 2-02           
1 50005U 21124A   26094.85184755 -.00000013  00000+0  00000+0 0  9997
2 50005   0.6123  87.3129 0003578 220.8893   2.5809  1.00272972 15885
TURKSAT 5B              
1 50212U 21126A   26094.82630987  .00000146  00000+0  00000+0 0  9995
2 50212   0.0795 331.5683 0005021   8.9931 192.0398  1.00273962 15569
INMARSAT 6-F1           
1 50319U 21128A   26094.90589722 -.00000171  00000+0  00000+0 0  9993
2 50319   0.0168 226.0017 0000296 270.0704 107.0149  1.00271281 15527
SHIYAN-12 01 (SY-12 01) 
1 50321U 21129A   26093.71193987 -.00000356  00000+0  00000+0 0  9994
2 50321   3.4828  80.9059 0003410 263.7414 222.3716  1.00080844 15750
SHIYAN-12 02 (SY-12 02) 
1 50322U 21129B   26093.68361286  .00000154  00000+0  00000+0 0  9995
2 50322   3.4829  80.9202 0000467  11.8860  18.2553  1.00462099 15755
TJS-9                   
1 50574U 21135A   26094.91647060 -.00000298  00000+0  00000+0 0  9995
2 50574   0.0674 278.9854 0003862 147.6816 233.7232  1.00272810 15699
GOES 18                 
1 51850U 22021A   26094.71956521  .00000097  00000+0  00000+0 0  9997
2 51850   0.0483  37.2906 0000820  38.7033 239.0887  1.00274252  5855
ZHONGXING-6D            
1 52255U 22038A   26092.12351987 -.00000361  00000+0  00000+0 0  9998
2 52255   0.0419 250.5407 0001977  80.9664  28.4685  1.00268552 14664
